[{"OBJECT_NAME":"SHIYAN-24C 02","OBJECT_ID":"2023-206B","EPOCH":"2026-03-09T21:24:07.715808","MEAN_MOTION":14.97980163,"ECCENTRICITY":0.0003465,"INCLINATION":97.3985,"RA_OF_ASC_NODE":41.8071,"ARG_OF_PERICENTER":80.6641,"MEAN_ANOMALY":279.4974,"EPHEMERIS_TYPE":0,"CLASSIFICATION_TYPE":"U","NORAD_CAT_ID":58651,"ELEMENT_SET_NO":999,"REV_AT_EPOCH":12044,"BSTAR":0.00023935,"MEAN_MOTION_DOT":2.77e-5,"MEAN_MOTION_DDOT":0},{"OBJECT_NAME":"STARLINK-33904","OBJECT_ID":"2025-094Z","EPOCH":"2026-03-09T20:49:37.867296","MEAN_MOTION":14.98343675,"ECCENTRICITY":0.00031203,"INCLINATION":70.0012,"RA_OF_ASC_NODE":233.8528,"ARG_OF_PERICENTER":268.9324,"MEAN_ANOMALY":91.1478,"EPHEMERIS_TYPE":0,"CLASSIFICATION_TYPE":"U","NORAD_CAT_ID":63887,"ELEMENT_SET_NO":999,"REV_AT_EPOCH":4723,"BSTAR":0.00049416816,"MEAN_MOTION_DOT":5.81e-5,"MEAN_MOTION_DDOT":0}]
